window._tle = "PEGASUS\n1 42784U 17036V   21210.11634269  .00002387  00000-0  99401-4 0  9997\n2 42784  97.2469 257.8544 0012381  40.0767 320.1382 15.24613862227703";
